{
  "norad_id": 59442,
  "name": "TSAT-1A",
  "history": [
    {
      "epoch": "2026-03-28T18:47:27.977280Z",
      "apogee_km": 471.63720623224526,
      "perigee_km": 457.5076954871647,
      "latitude_deg": -5.722760266134719e-06,
      "longitude_deg": 91.38616329728185,
      "height_km": 457.5880776435339,
      "semi_major_axis_km": 6842.709450859705,
      "eccentricity": 0.00103245,
      "inclination_deg": 45.6158,
      "raan_deg": 199.4512,
      "arg_perigee_deg": 3.4334,
      "mean_anomaly_deg": 356.663,
      "mean_motion_rev_day": 15.33771319
    },
    {
      "epoch": "2026-03-29T04:10:12.495936Z",
      "apogee_km": 471.5700125342355,
      "perigee_km": 457.4905403462308,
      "latitude_deg": 1.0344221131321187e-05,
      "longitude_deg": -51.8144986578208,
      "height_km": 457.5917488113513,
      "semi_major_axis_km": 6842.667276440233,
      "eccentricity": 0.0010288,
      "inclination_deg": 45.616,
      "raan_deg": 197.3212,
      "arg_perigee_deg": 5.6295,
      "mean_anomaly_deg": 354.4714,
      "mean_motion_rev_day": 15.33785499
    },
    {
      "epoch": "2026-03-30T03:37:02.152704Z",
      "apogee_km": 471.36597287765017,
      "perigee_km": 457.4386683444782,
      "latitude_deg": -4.449916792609538e-05,
      "longitude_deg": -49.80989392644521,
      "height_km": 457.6326167877732,
      "semi_major_axis_km": 6842.539320611064,
      "eccentricity": 0.0010177,
      "inclination_deg": 45.6165,
      "raan_deg": 191.9957,
      "arg_perigee_deg": 10.9951,
      "mean_anomaly_deg": 349.1164,
      "mean_motion_rev_day": 15.33828522
    },
    {
      "epoch": "2026-03-30T06:44:36.620160Z",
      "apogee_km": 471.3498926595812,
      "perigee_km": 457.4282259898009,
      "latitude_deg": 5.871279571879965e-05,
      "longitude_deg": -97.54179787566949,
      "height_km": 457.63952562127906,
      "semi_major_axis_km": 6842.52605932469,
      "eccentricity": 0.00101729,
      "inclination_deg": 45.6165,
      "raan_deg": 191.2857,
      "arg_perigee_deg": 11.7301,
      "mean_anomaly_deg": 348.383,
      "mean_motion_rev_day": 15.33832981
    },
    {
      "epoch": "2026-03-30T14:33:32.571072Z",
      "apogee_km": 471.27636042794165,
      "perigee_km": 457.41745666988936,
      "latitude_deg": 1.8610783331178212e-05,
      "longitude_deg": 143.1289617686361,
      "height_km": 457.673951637526,
      "semi_major_axis_km": 6842.483908548916,
      "eccentricity": 0.00101271,
      "inclination_deg": 45.6167,
      "raan_deg": 189.5106,
      "arg_perigee_deg": 13.4817,
      "mean_anomaly_deg": 346.6347,
      "mean_motion_rev_day": 15.33847154
    },
    {
      "epoch": "2026-03-30T17:41:06.882144Z",
      "apogee_km": 471.248405115678,
      "perigee_km": 457.41211521954847,
      "latitude_deg": 5.167601282782779e-06,
      "longitude_deg": 95.39709766522,
      "height_km": 457.68815735396043,
      "semi_major_axis_km": 6842.467260167613,
      "eccentricity": 0.00101106,
      "inclination_deg": 45.6166,
      "raan_deg": 188.8001,
      "arg_perigee_deg": 14.1758,
      "mean_anomaly_deg": 345.9419,
      "mean_motion_rev_day": 15.33852752
    },
    {
      "epoch": "2026-03-31T15:34:06.135168Z",
      "apogee_km": 471.09872261654436,
      "perigee_km": 457.3715556310344,
      "latitude_deg": -3.496218733783728e-05,
      "longitude_deg": 121.28116417907685,
      "height_km": 457.8264059960913,
      "semi_major_axis_km": 6842.37213912379,
      "eccentricity": 0.0010031,
      "inclination_deg": 45.6171,
      "raan_deg": 183.8298,
      "arg_perigee_deg": 19.4251,
      "mean_anomaly_deg": 340.7024,
      "mean_motion_rev_day": 15.33884737
    },
    {
      "epoch": "2026-04-01T16:34:37.546176Z",
      "apogee_km": 470.93336024202745,
      "perigee_km": 457.33366337275856,
      "latitude_deg": -2.216247083189423e-05,
      "longitude_deg": 99.44222692964476,
      "height_km": 458.0638224733752,
      "semi_major_axis_km": 6842.270511807393,
      "eccentricity": 0.0009938,
      "inclination_deg": 45.6172,
      "raan_deg": 178.1488,
      "arg_perigee_deg": 25.6006,
      "mean_anomaly_deg": 334.5379,
      "mean_motion_rev_day": 15.33918911
    },
    {
      "epoch": "2026-04-02T16:01:20.010144Z",
      "apogee_km": 470.77629529404567,
      "perigee_km": 457.2288589313621,
      "latitude_deg": 4.4139348843088244e-05,
      "longitude_deg": 101.47640187693489,
      "height_km": 458.2893364885921,
      "semi_major_axis_km": 6842.139577112704,
      "eccentricity": 0.00099,
      "inclination_deg": 45.6169,
      "raan_deg": 172.8227,
      "arg_perigee_deg": 31.521,
      "mean_anomaly_deg": 328.6277,
      "mean_motion_rev_day": 15.33962942
    },
    {
      "epoch": "2026-04-02T22:16:26.925024Z",
      "apogee_km": 470.743571590755,
      "perigee_km": 457.2186199085236,
      "latitude_deg": 1.1417037784019173e-05,
      "longitude_deg": 6.02040094745028,
      "height_km": 458.3845634597285,
      "semi_major_axis_km": 6842.118095749639,
      "eccentricity": 0.00098836,
      "inclination_deg": 45.6168,
      "raan_deg": 171.4023,
      "arg_perigee_deg": 33.2233,
      "mean_anomaly_deg": 326.9281,
      "mean_motion_rev_day": 15.33970166
    },
    {
      "epoch": "2026-04-03T13:54:13.395744Z",
      "apogee_km": 470.662865465526,
      "perigee_km": 457.1006159177259,
      "latitude_deg": 7.812855218779975e-07,
      "longitude_deg": 127.3851787575427,
      "height_km": 458.5442861426711,
      "semi_major_axis_km": 6842.018740691626,
      "eccentricity": 0.0009911,
      "inclination_deg": 45.6163,
      "raan_deg": 167.8526,
      "arg_perigee_deg": 37.2631,
      "mean_anomaly_deg": 322.895,
      "mean_motion_rev_day": 15.34003579
    },
    {
      "epoch": "2026-04-04T21:09:43.199136Z",
      "apogee_km": 470.4661326272553,
      "perigee_km": 456.9958629132452,
      "latitude_deg": 8.0070485258957e-06,
      "longitude_deg": 10.124572229221526,
      "height_km": 459.0543974970476,
      "semi_major_axis_km": 6841.8679977702495,
      "eccentricity": 0.0009844,
      "inclination_deg": 45.6155,
      "raan_deg": 160.7499,
      "arg_perigee_deg": 45.3429,
      "mean_anomaly_deg": 314.8267,
      "mean_motion_rev_day": 15.34054276
    },
    {
      "epoch": "2026-04-05T14:21:13.146912Z",
      "apogee_km": 470.3872935531017,
      "perigee_km": 456.9322160551046,
      "latitude_deg": 5.0592860063804687e-05,
      "longitude_deg": 107.63699402919673,
      "height_km": 459.3531237569047,
      "semi_major_axis_km": 6841.796754804103,
      "eccentricity": 0.0009833,
      "inclination_deg": 45.6153,
      "raan_deg": 156.8431,
      "arg_perigee_deg": 49.5711,
      "mean_anomaly_deg": 310.6041,
      "mean_motion_rev_day": 15.34078237
    },
    {
      "epoch": "2026-04-06T05:58:56.011296Z",
      "apogee_km": 470.3169629666754,
      "perigee_km": 456.8926445386969,
      "latitude_deg": -2.7865549466634808e-05,
      "longitude_deg": -130.9846279792254,
      "height_km": 459.67561325709636,
      "semi_major_axis_km": 6841.741803752686,
      "eccentricity": 0.00098106,
      "inclination_deg": 45.615,
      "raan_deg": 153.292,
      "arg_perigee_deg": 53.5857,
      "mean_anomaly_deg": 306.5941,
      "mean_motion_rev_day": 15.34096719
    },
    {
      "epoch": "2026-04-07T13:14:19.746816Z",
      "apogee_km": 470.16034521383517,
      "perigee_km": 456.8478799369859,
      "latitude_deg": -4.51500521589206e-05,
      "longitude_deg": 111.78039104687764,
      "height_km": 460.3811274351489,
      "semi_major_axis_km": 6841.64111257541,
      "eccentricity": 0.0009729,
      "inclination_deg": 45.6148,
      "raan_deg": 146.1896,
      "arg_perigee_deg": 61.4937,
      "mean_anomaly_deg": 298.6936,
      "mean_motion_rev_day": 15.34130586
    },
    {
      "epoch": "2026-04-08T14:14:36.995136Z",
      "apogee_km": 470.03047159348625,
      "perigee_km": 456.8332221192768,
      "latitude_deg": -1.167931724014134e-06,
      "longitude_deg": 89.99955242422544,
      "height_km": 461.0291240804785,
      "semi_major_axis_km": 6841.568846856381,
      "eccentricity": 0.00096449,
      "inclination_deg": 45.6149,
      "raan_deg": 140.5075,
      "arg_perigee_deg": 68.1537,
      "mean_anomaly_deg": 292.0383,
      "mean_motion_rev_day": 15.34154893
    },
    {
      "epoch": "2026-04-09T13:41:06.838656Z",
      "apogee_km": 469.90628420763824,
      "perigee_km": 456.8212298597364,
      "latitude_deg": -7.175842393331795e-06,
      "longitude_deg": 92.0852824063018,
      "height_km": 461.66124779681286,
      "semi_major_axis_km": 6841.5007570336875,
      "eccentricity": 0.0009563,
      "inclination_deg": 45.615,
      "raan_deg": 135.1803,
      "arg_perigee_deg": 74.4439,
      "mean_anomaly_deg": 285.7511,
      "mean_motion_rev_day": 15.34177796
    },
    {
      "epoch": "2026-04-10T06:52:31.866816Z",
      "apogee_km": 469.821276201008,
      "perigee_km": 456.7953012002281,
      "latitude_deg": 2.6822113964441272e-05,
      "longitude_deg": -170.3816503798408,
      "height_km": 462.1228399920619,
      "semi_major_axis_km": 6841.445288700618,
      "eccentricity": 0.00095199,
      "inclination_deg": 45.6154,
      "raan_deg": 131.2736,
      "arg_perigee_deg": 79.0497,
      "mean_anomaly_deg": 281.1469,
      "mean_motion_rev_day": 15.34196454
    },
    {
      "epoch": "2026-04-11T18:49:05.638656Z",
      "apogee_km": 469.6861606755692,
      "perigee_km": 456.7354892429221,
      "latitude_deg": -2.022916592257989e-05,
      "longitude_deg": 0.8330700730406505,
      "height_km": 463.1079788898325,
      "semi_major_axis_km": 6841.347824959245,
      "eccentricity": 0.0009465,
      "inclination_deg": 45.616,
      "raan_deg": 123.1052,
      "arg_perigee_deg": 88.6348,
      "mean_anomaly_deg": 271.5631,
      "mean_motion_rev_day": 15.34229239
    },
    {
      "epoch": "2026-04-13T06:45:36.900576Z",
      "apogee_km": 469.64454878050947,
      "perigee_km": 456.63326296065225,
      "latitude_deg": 4.597535779164624e-05,
      "longitude_deg": 172.0576896343624,
      "height_km": 464.0992241671416,
      "semi_major_axis_km": 6841.275905870581,
      "eccentricity": 0.00095094,
      "inclination_deg": 45.6159,
      "raan_deg": 114.9361,
      "arg_perigee_deg": 98.0313,
      "mean_anomaly_deg": 262.1662,
      "mean_motion_rev_day": 15.34253432
    },
    {
      "epoch": "2026-04-14T20:15:51.791616Z",
      "apogee_km": 469.6400729105644,
      "perigee_km": 456.50495064794814,
      "latitude_deg": -3.752087062531439e-05,
      "longitude_deg": -40.56957608857013,
      "height_km": 465.12489501998715,
      "semi_major_axis_km": 6841.209511779256,
      "eccentricity": 0.00096,
      "inclination_deg": 45.6155,
      "raan_deg": 106.4112,
      "arg_perigee_deg": 107.7343,
      "mean_anomaly_deg": 252.46,
      "mean_motion_rev_day": 15.34275767
    }
  ]
}